48976,ONEWEB-0258,2021,109.37,148.0,+,87.91,Active,1,LEO,Russia,UK,Commercial,Communications,Soyuz,1 48976U 21060K   25071.42281535 -.00000032  00000+0 -11766-3 0  9998,2 48976  87.9097 320.8422 0001713  78.0386 282.0937 13.16595909178837,13.16595909,0.0001713,LEO
48977,ONEWEB-0259,2021,109.37,148.0,+,87.91,Active,1,LEO,Russia,UK,Commercial,Communications,Soyuz,1 48977U 21060L   25071.72050554  .00000222  00000+0  54643-3 0  9997,2 48977  87.9110 320.7628 0001686  80.6916 279.4405 13.16592391180192,13.16592391,0.0001686,LEO
48978,ONEWEB-0260,2021,109.37,148.0,+,87.91,Active,1,LEO,Russia,UK,Commercial,Communications,Soyuz,1 48978U 21060M   25071.71175903 -.00000042  00000+0 -14253-3 0  9998,2 48978  87.9099 320.7987 0001992  94.8200 265.3158 13.16596813180169,13.16596813,0.0001992,LEO
48979,ONEWEB-0261,2021,109.37,148.0,+,87.91,Active,1,LEO,Russia,UK,Commercial,Communications,Soyuz,1 48979U 21060N   25071.60567608 -.00000234  00000+0 -64448-3 0  9998,2 48979  87.9102 320.8205 0002244  81.2731 278.8654 13.16593762178920,13.16593762,0.0002244,LEO
48980,ONEWEB-0262,2021,109.37,148.0,+,87.91,Active,1,LEO,Russia,UK,Commercial,Communications,Soyuz,1 48980U 21060P   25071.73787423 -.00000266  00000+0 -73065-3 0  9993,2 48980  87.9096 320.7508 0001766  70.2368 289.8953 13.16594655180201,13.16594655,0.0001766,LEO
48981,ONEWEB-0263,2021,109.37,148.0,+,87.91,Active,1,LEO,Russia,UK,Commercial,Communications,Soyuz,1 48981U 21060Q   25071.92153673  .00000072  00000+0  15374-3 0  9991,2 48981  87.9102 320.7389 0002101  73.9260 286.2102 13.16595831180194,13.16595831,0.0002101,LEO
48982,ONEWEB-0264,2021,109.37,148.0,+,87.91,Active,1,LEO,Russia,UK,Commercial,Communications,Soyuz,1 48982U 21060R   25071.42677189  .00000058  00000+0  11890-3 0  9993,2 48982  87.9099 320.8464 0001811  80.2870 279.8465 13.16596440178835,13.1659644,0.0001811,LEO
48984,ONEWEB-0266,2021,109.37,148.0,+,87.91,Active,1,LEO,Russia,UK,Commercial,Communications,Soyuz,1 48984U 21060T   25071.60013948  .00000100  00000+0  22850-3 0  9998,2 48984  87.9099 320.7828 0001621  75.6169 284.5141 13.16592343178841,13.16592343,0.0001621,LEO
